IRIDIUM 159             
1 43578U 18061K   24315.45303485  .00000540  00000+0  18566-3 0  9997
2 43578  86.3925 300.6438 0002152  90.3570 269.7873 14.34215970329710
IRIDIUM 180             
1 43922U 19002A   24314.89438408  .00000414  00000+0  14072-3 0  9995
2 43922  86.3990 237.7220 0002131  81.2940 278.8497 14.34219817305240
IRIDIUM 176             
1 43923U 19002B   24314.90853309  .00004765  00000+0  75209-3 0  9991
2 43923  86.6114 237.7260 0002368  98.0123 262.1363 14.72216503313289
IRIDIUM 168             
1 43924U 19002C   24314.81826966  .00000206  00000+0  66652-4 0  9990
2 43924  86.3994 237.8146 0002225  83.8922 276.2527 14.34210813305216
IRIDIUM 173             
1 43925U 19002D   24314.73581832  .00001340  00000+0  47122-3 0  9992
2 43925  86.3991 237.7616 0002148  82.5358 277.6082 14.34216371305180
IRIDIUM 169             
1 43926U 19002E   24315.19241952  .00001774  00000+0  57347-3 0  9991
2 43926  86.4200 269.2007 0004169  91.4441 268.7235 14.38592745306263
IRIDIUM 172             
1 43927U 19002F   24315.21785870  .00000170  00000+0  53691-4 0  9995
2 43927  86.3995 237.5670 0002152  85.8239 274.3203 14.34214179305265
IRIDIUM 175             
1 43928U 19002G   24315.44690882  .00005493  00000+0  86707-3 0  9995
2 43928  86.1555 202.4311 0003272  68.8346 291.3220 14.72232971313352
